[{"OBJECT_NAME":"YAOGAN-40 02A","OBJECT_ID":"2025-096A","EPOCH":"2026-03-09T23:00:41.577120","MEAN_MOTION":14.1242685,"ECCENTRICITY":0.00022356,"INCLINATION":85.9915,"RA_OF_ASC_NODE":232.4162,"ARG_OF_PERICENTER":82.7256,"MEAN_ANOMALY":277.4181,"EPHEMERIS_TYPE":0,"CLASSIFICATION_TYPE":"U","NORAD_CAT_ID":63918,"ELEMENT_SET_NO":999,"REV_AT_EPOCH":4256,"BSTAR":9.2662913e-5,"MEAN_MOTION_DOT":1.9e-6,"MEAN_MOTION_DDOT":0},{"OBJECT_NAME":"CZ-6A R\/B","OBJECT_ID":"2024-058B","EPOCH":"2026-03-09T22:13:55.818336","MEAN_MOTION":14.28615253,"ECCENTRICITY":0.00794171,"INCLINATION":98.793,"RA_OF_ASC_NODE":95.0746,"ARG_OF_PERICENTER":84.7388,"MEAN_ANOMALY":276.2849,"EPHEMERIS_TYPE":0,"CLASSIFICATION_TYPE":"U","NORAD_CAT_ID":59344,"ELEMENT_SET_NO":999,"REV_AT_EPOCH":10179,"BSTAR":5.1164894e-5,"MEAN_MOTION_DOT":8.8e-7,"MEAN_MOTION_DDOT":0}]
